[
    {
        "Altitude(m)": 702713.779254848,
        "Argument of Periapsis(deg)": 0.004556048474650827,
        "Eccentricity": 0.0,
        "Inclination(deg)": 45.0,
        "Latitude(deg)": 14.693257119143082,
        "Longitude(deg)": 149.82695848657977,
        "Mean Anomaly(deg)": 20.976886658992324,
        "RAAN(deg)": 234.99569922341675,
        "Satellite Name": "Constellation 1 1035",
        "Satellite Number": 1035,
        "Semi-Major Axis(m)": 7083131.272910544,
        "Time(s)": 76
    },
    {
        "Altitude(m)": 702715.0414585264,
        "Argument of Periapsis(deg)": 0.004615996480896233,
        "Eccentricity": 0.0,
        "Inclination(deg)": 45.0,
        "Latitude(deg)": 14.7349614215162,
        "Longitude(deg)": 149.86865930117904,
        "Mean Anomaly(deg)": 21.037587799242214,
        "RAAN(deg)": 234.99564263425114,
        "Satellite Name": "Constellation 1 1035",
        "Satellite Number": 1035,
        "Semi-Major Axis(m)": 7083131.272910544,
        "Time(s)": 77
    },
    {
        "Altitude(m)": 702716.3211490806,
        "Argument of Periapsis(deg)": 0.004675944487141638,
        "Eccentricity": 0.0,
        "Inclination(deg)": 45.0,
        "Latitude(deg)": 14.776656536796184,
        "Longitude(deg)": 149.91037756682655,
        "Mean Anomaly(deg)": 21.09828893949215,
        "RAAN(deg)": 234.99558604508556,
        "Satellite Name": "Constellation 1 1035",
        "Satellite Number": 1035,
        "Semi-Major Axis(m)": 7083131.272910544,
        "Time(s)": 78
    },
    {
        "Altitude(m)": 702717.6183029696,
        "Argument of Periapsis(deg)": 0.004735892493387044,
        "Eccentricity": 0.0,
        "Inclination(deg)": 45.0,
        "Latitude(deg)": 14.818342434299415,
        "Longitude(deg)": 149.95211333781828,
        "Mean Anomaly(deg)": 21.158990079742036,
        "RAAN(deg)": 234.99552945592,
        "Satellite Name": "Constellation 1 1035",
        "Satellite Number": 1035,
        "Semi-Major Axis(m)": 7083131.272910544,
        "Time(s)": 79
    },
    {
        "Altitude(m)": 702718.9328965691,
        "Argument of Periapsis(deg)": 0.004795840499632449,
        "Eccentricity": 0.0,
        "Inclination(deg)": 45.0,
        "Latitude(deg)": 14.86001908330811,
        "Longitude(deg)": 149.99386666848028,
        "Mean Anomaly(deg)": 21.219691219991923,
        "RAAN(deg)": 234.99547286675445,
        "Satellite Name": "Constellation 1 1035",
        "Satellite Number": 1035,
        "Semi-Major Axis(m)": 7083131.272910544,
        "Time(s)": 80
    },
    {
        "Altitude(m)": 702720.2649061868,
        "Argument of Periapsis(deg)": 0.004855788505877855,
        "Eccentricity": 0.0,
        "Inclination(deg)": 45.0,
        "Latitude(deg)": 14.901686453070159,
        "Longitude(deg)": 150.03563761316894,
        "Mean Anomaly(deg)": 21.28039236024181,
        "RAAN(deg)": 234.99541627758884,
        "Satellite Name": "Constellation 1 1035",
        "Satellite Number": 1035,
        "Semi-Major Axis(m)": 7083131.272910544,
        "Time(s)": 81
    },
    {
        "Altitude(m)": 702721.6143080607,
        "Argument of Periapsis(deg)": 0.00491573651212326,
        "Eccentricity": 0.0,
        "Inclination(deg)": 45.0,
        "Latitude(deg)": 14.943344512799422,
        "Longitude(deg)": 150.07742605817413,
        "Mean Anomaly(deg)": 21.341093500491745,
        "RAAN(deg)": 234.9953596884233,
        "Satellite Name": "Constellation 1 1035",
        "Satellite Number": 1035,
        "Semi-Major Axis(m)": 7083131.272910544,
        "Time(s)": 82
    },
    {
        "Altitude(m)": 702722.9810783578,
        "Argument of Periapsis(deg)": 0.004975684518368666,
        "Eccentricity": 0.0,
        "Inclination(deg)": 45.0,
        "Latitude(deg)": 14.984993231674284,
        "Longitude(deg)": 150.11923239410697,
        "Mean Anomaly(deg)": 21.40179464074163,
        "RAAN(deg)": 234.9953030992577,
        "Satellite Name": "Constellation 1 1035",
        "Satellite Number": 1035,
        "Semi-Major Axis(m)": 7083131.272910544,
        "Time(s)": 83
    },
    {
        "Altitude(m)": 702724.3651931671,
        "Argument of Periapsis(deg)": 0.005035632524614072,
        "Eccentricity": 0.0,
        "Inclination(deg)": 45.0,
        "Latitude(deg)": 15.026632578839404,
        "Longitude(deg)": 150.16105650731816,
        "Mean Anomaly(deg)": 21.462495780991517,
        "RAAN(deg)": 234.99524651009216,
        "Satellite Name": "Constellation 1 1035",
        "Satellite Number": 1035,
        "Semi-Major Axis(m)": 7083131.272910544,
        "Time(s)": 84
    },
    {
        "Altitude(m)": 702725.7666285136,
        "Argument of Periapsis(deg)": 0.0050955805308594785,
        "Eccentricity": 0.0,
        "Inclination(deg)": 45.0,
        "Latitude(deg)": 15.068262523404398,
        "Longitude(deg)": 150.20289845228572,
        "Mean Anomaly(deg)": 21.523196921241453,
        "RAAN(deg)": 234.9951899209266,
        "Satellite Name": "Constellation 1 1035",
        "Satellite Number": 1035,
        "Semi-Major Axis(m)": 7083131.272910544,
        "Time(s)": 85
    },
    {
        "Altitude(m)": 702727.185360351,
        "Argument of Periapsis(deg)": 0.005155528537104883,
        "Eccentricity": 0.0,
        "Inclination(deg)": 45.0,
        "Latitude(deg)": 15.109883034444046,
        "Longitude(deg)": 150.24475828351817,
        "Mean Anomaly(deg)": 21.583898061491343,
        "RAAN(deg)": 234.995133331761,
        "Satellite Name": "Constellation 1 1035",
        "Satellite Number": 1035,
        "Semi-Major Axis(m)": 7083131.272910544,
        "Time(s)": 86
    },
    {
        "Altitude(m)": 702728.6213645582,
        "Argument of Periapsis(deg)": 0.0052154765433502885,
        "Eccentricity": 0.0,
        "Inclination(deg)": 45.0,
        "Latitude(deg)": 15.151494080998164,
        "Longitude(deg)": 150.2866360555546,
        "Mean Anomaly(deg)": 21.64459920174123,
        "RAAN(deg)": 234.99507674259544,
        "Satellite Name": "Constellation 1 1035",
        "Satellite Number": 1035,
        "Semi-Major Axis(m)": 7083131.272910544,
        "Time(s)": 87
    },
    {
        "Altitude(m)": 702730.0746169452,
        "Argument of Periapsis(deg)": 0.005275424549595694,
        "Eccentricity": 0.0,
        "Inclination(deg)": 45.0,
        "Latitude(deg)": 15.19309563207152,
        "Longitude(deg)": 150.3285318229644,
        "Mean Anomaly(deg)": 21.705300341991116,
        "RAAN(deg)": 234.99502015342986,
        "Satellite Name": "Constellation 1 1035",
        "Satellite Number": 1035,
        "Semi-Major Axis(m)": 7083131.272910544,
        "Time(s)": 88
    },
    {
        "Altitude(m)": 702731.545093255,
        "Argument of Periapsis(deg)": 0.0053353725558411,
        "Eccentricity": 0.0,
        "Inclination(deg)": 45.0,
        "Latitude(deg)": 15.234687656633897,
        "Longitude(deg)": 150.37044547225076,
        "Mean Anomaly(deg)": 21.76600148224105,
        "RAAN(deg)": 234.9949635642643,
        "Satellite Name": "Constellation 1 1035",
        "Satellite Number": 1035,
        "Semi-Major Axis(m)": 7083131.272910544,
        "Time(s)": 89
    },
    {
        "Altitude(m)": 702733.0327691564,
        "Argument of Periapsis(deg)": 0.005395320562086505,
        "Eccentricity": 0.0,
        "Inclination(deg)": 45.0,
        "Latitude(deg)": 15.27627012361909,
        "Longitude(deg)": 150.41237739423858,
        "Mean Anomaly(deg)": 21.82670262249094,
        "RAAN(deg)": 234.9949069750987,
        "Satellite Name": "Constellation 1 1035",
        "Satellite Number": 1035,
        "Semi-Major Axis(m)": 7083131.272910544,
        "Time(s)": 90
    },
    {
        "Altitude(m)": 702734.537620244,
        "Argument of Periapsis(deg)": 0.00545526856833191,
        "Eccentricity": 0.0,
        "Inclination(deg)": 45.0,
        "Latitude(deg)": 15.31784300192623,
        "Longitude(deg)": 150.45432747549208,
        "Mean Anomaly(deg)": 21.887403762740824,
        "RAAN(deg)": 234.99485038593315,
        "Satellite Name": "Constellation 1 1035",
        "Satellite Number": 1035,
        "Semi-Major Axis(m)": 7083131.272910544,
        "Time(s)": 91
    },
    {
        "Altitude(m)": 702736.0596220483,
        "Argument of Periapsis(deg)": 0.005515216574577317,
        "Eccentricity": 0.0,
        "Inclination(deg)": 45.0,
        "Latitude(deg)": 15.359406260418671,
        "Longitude(deg)": 150.49629577070323,
        "Mean Anomaly(deg)": 21.948104902990764,
        "RAAN(deg)": 234.9947937967676,
        "Satellite Name": "Constellation 1 1035",
        "Satellite Number": 1035,
        "Semi-Major Axis(m)": 7083131.272910544,
        "Time(s)": 92
    },
    {
        "Altitude(m)": 702737.598750032,
        "Argument of Periapsis(deg)": 0.005575164580822722,
        "Eccentricity": 0.0,
        "Inclination(deg)": 45.0,
        "Latitude(deg)": 15.40095986792412,
        "Longitude(deg)": 150.5382823345945,
        "Mean Anomaly(deg)": 22.0088060432406,
        "RAAN(deg)": 234.99473720760204,
        "Satellite Name": "Constellation 1 1035",
        "Satellite Number": 1035,
        "Semi-Major Axis(m)": 7083131.272910544,
        "Time(s)": 93
    },
    {
        "Altitude(m)": 702739.1549795804,
        "Argument of Periapsis(deg)": 0.005635112587068129,
        "Eccentricity": 0.0,
        "Inclination(deg)": 45.0,
        "Latitude(deg)": 15.442503793234643,
        "Longitude(deg)": 150.58028722191926,
        "Mean Anomaly(deg)": 22.069507183490487,
        "RAAN(deg)": 234.99468061843646,
        "Satellite Name": "Constellation 1 1035",
        "Satellite Number": 1035,
        "Semi-Major Axis(m)": 7083131.272910544,
        "Time(s)": 94
    }
]